CCSDS_OMM_VERS = 2.0
CREATION_DATE  = 
ORIGINATOR     = 

OBJECT_NAME    = 1998-067XU
OBJECT_ID      = 1998-067XU
CENTER_NAME    = EARTH
REF_FRAME      = TEME
TIME_SYSTEM    = UTC
MEAN_ELEMENT_THEORY = SGP/SGP4

EPOCH          = 2026-01-31T20:18:16.032960
MEAN_MOTION    = 15.59932347
ECCENTRICITY   = .0002606
INCLINATION    = 51.6262
RA_OF_ASC_NODE = 252.1321
ARG_OF_PERICENTER = 161.1183
MEAN_ANOMALY   = 198.9907

EPHEMERIS_TYPE = 0
CLASSIFICATION_TYPE = U
NORAD_CAT_ID   = 66908
ELEMENT_SET_NO = 999
REV_AT_EPOCH   = 941
BSTAR          = .10124E-2
MEAN_MOTION_DOT = .83595E-3
MEAN_MOTION_DDOT = 0

CCSDS_OMM_VERS = 2.0
CREATION_DATE  = 
ORIGINATOR     = 

OBJECT_NAME    = SILVERSAT
OBJECT_ID      = 1998-067XV
CENTER_NAME    = EARTH
REF_FRAME      = TEME
TIME_SYSTEM    = UTC
MEAN_ELEMENT_THEORY = SGP/SGP4

EPOCH          = 2026-01-31T19:51:02.435328
MEAN_MOTION    = 15.61074845
ECCENTRICITY   = .0003226
INCLINATION    = 51.6269
RA_OF_ASC_NODE = 252.0071
ARG_OF_PERICENTER = 173.2127
MEAN_ANOMALY   = 186.8911

EPHEMERIS_TYPE = 0
CLASSIFICATION_TYPE = U
NORAD_CAT_ID   = 66909
ELEMENT_SET_NO = 999
REV_AT_EPOCH   = 941
BSTAR          = .10749E-2
MEAN_MOTION_DOT = .92891E-3
MEAN_MOTION_DDOT = 0

CCSDS_OMM_VERS = 2.0
CREATION_DATE  = 
ORIGINATOR     = 

OBJECT_NAME    = 1998-067XW
OBJECT_ID      = 1998-067XW
CENTER_NAME    = EARTH
REF_FRAME      = TEME
TIME_SYSTEM    = UTC
MEAN_ELEMENT_THEORY = SGP/SGP4

EPOCH          = 2026-01-31T20:04:11.307936
MEAN_MOTION    = 15.60008110
ECCENTRICITY   = .0001455
INCLINATION    = 51.6260
RA_OF_ASC_NODE = 252.0639
ARG_OF_PERICENTER = 159.9813
MEAN_ANOMALY   = 200.1237

EPHEMERIS_TYPE = 0
CLASSIFICATION_TYPE = U
NORAD_CAT_ID   = 66910
ELEMENT_SET_NO = 999
REV_AT_EPOCH   = 941
BSTAR          = .89701E-3
MEAN_MOTION_DOT = .7413E-3
MEAN_MOTION_DDOT = 0

CCSDS_OMM_VERS = 2.0
CREATION_DATE  = 
ORIGINATOR     = 

OBJECT_NAME    = 1998-067XX
OBJECT_ID      = 1998-067XX
CENTER_NAME    = EARTH
REF_FRAME      = TEME
TIME_SYSTEM    = UTC
MEAN_ELEMENT_THEORY = SGP/SGP4

EPOCH          = 2026-01-31T19:16:15.747456
MEAN_MOTION    = 15.62130846
ECCENTRICITY   = .0002424
INCLINATION    = 51.6249
RA_OF_ASC_NODE = 251.8398
ARG_OF_PERICENTER = 192.8292
MEAN_ANOMALY   = 167.2640

EPHEMERIS_TYPE = 0
CLASSIFICATION_TYPE = U
NORAD_CAT_ID   = 66911
ELEMENT_SET_NO = 999
REV_AT_EPOCH   = 940
BSTAR          = .10116E-2
MEAN_MOTION_DOT = .9102E-3
MEAN_MOTION_DDOT = 0

CCSDS_OMM_VERS = 2.0
CREATION_DATE  = 
ORIGINATOR     = 

OBJECT_NAME    = 1998-067XY
OBJECT_ID      = 1998-067XY
CENTER_NAME    = EARTH
REF_FRAME      = TEME
TIME_SYSTEM    = UTC
MEAN_ELEMENT_THEORY = SGP/SGP4

EPOCH          = 2026-01-31T19:42:45.982656
MEAN_MOTION    = 15.57537864
ECCENTRICITY   = .0002196
INCLINATION    = 51.6284
RA_OF_ASC_NODE = 252.7194
ARG_OF_PERICENTER = 130.1632
MEAN_ANOMALY   = 229.9552

EPHEMERIS_TYPE = 0
CLASSIFICATION_TYPE = U
NORAD_CAT_ID   = 66912
ELEMENT_SET_NO = 999
REV_AT_EPOCH   = 939
BSTAR          = .75096E-3
MEAN_MOTION_DOT = .56292E-3
MEAN_MOTION_DDOT = 0

