1998-067XU              
1 66908U 98067XU  26031.84601890  .00083595  00000+0  10124-2 0  9996
2 66908  51.6262 252.1321 0002606 161.1183 198.9907 15.59932347  9419
SILVERSAT               
1 66909U 98067XV  26031.82711152  .00092891  00000+0  10749-2 0  9990
2 66909  51.6269 252.0071 0003226 173.2127 186.8911 15.61074845  9413
1998-067XW              
1 66910U 98067XW  26031.83624199  .00074130  00000+0  89701-3 0  9998
2 66910  51.6260 252.0639 0001455 159.9813 200.1237 15.60008110  9413
1998-067XX              
1 66911U 98067XX  26031.80296004  .00091020  00000+0  10116-2 0  9996
2 66911  51.6249 251.8398 0002424 192.8292 167.2640 15.62130846  9408
1998-067XY              
1 66912U 98067XY  26031.82136554  .00056292  00000+0  75096-3 0  9993
2 66912  51.6284 252.7194 0002196 130.1632 229.9552 15.57537864  9392
